NORAD_CAT_ID,OBJECT_NAME,OBJECT_TYPE,EPOCH,MEAN_MOTION,ECCENTRICITY,INCLINATION,RA_OF_ASC_NODE,ARG_OF_PERICENTER,MEAN_ANOMALY,BSTAR,MEAN_MOTION_DOT,MEAN_MOTION_DDOT,TLE_LINE0,TLE_LINE1,TLE_LINE2,SEMIMAJOR_AXIS,PERIOD,APOGEE,PERIGEE,DECAYED
53792.0,STARLINK-4739,PAYLOAD,2022-11-18 14:00:01,15.17910463,0.0001678,53.2166,292.942,37.1121,20.8393,-0.062279,-0.01176195,0.0,0 STARLINK-4739,1 53792U 22111V   22322.58334491 -.01176195  00000-0 -62279-1 0  9990,2 53792  53.2166 292.9420 0001678  37.1121  20.8393 15.17910463  1302,6890.294,94.867,513.315,511.003,0.0
53792.0,STARLINK-4739,PAYLOAD,2022-11-18 22:00:00,15.171080900000002,0.0001919,53.2163,291.4245,38.7255,41.194,-0.0645309999999999,-0.01189689,0.0,0 STARLINK-4739,1 53792U 22111V   22322.91667824 -.01189689  00000-0 -64531-1 0  9991,2 53792  53.2163 291.4245 0001919  38.7255  41.1940 15.17108090 10704,6892.723000000001,94.917,515.911,513.265,0.0
53792.0,STARLINK-4739,PAYLOAD,2022-11-19 14:00:01,15.15453827,0.0001937,53.2166,288.3983,37.102,83.8459,-0.065453,-0.01153761,0.0,0 STARLINK-4739,1 53792U 22111V   22323.58334491 -.01153761  00000-0 -65453-1 0  9992,2 53792  53.2166 288.3983 0001937  37.1020  83.8459 15.15453827  1307,6897.738,95.021,520.939,518.2669999999998,0.0
53792.0,STARLINK-4739,PAYLOAD,2022-11-19 22:00:00,15.14697631,0.000194,53.2162,286.8864,30.5495,109.4101,-0.071712,-0.01230256,0.0,0 STARLINK-4739,1 53792U 22111V   22323.91667824 -.01230256  00000-0 -71712-1 0  9998,2 53792  53.2162 286.8864 0001940  30.5495 109.4101 15.14697631  1302,6900.034000000002,95.068,523.237,520.56,0.0
53792.0,STARLINK-4739,PAYLOAD,2022-11-20 14:00:01,15.13012083,0.0001863,53.2166,283.8715,44.3609,130.7762,-0.070087,-0.01152837,0.0,0 STARLINK-4739,1 53792U 22111V   22324.58334491 -.01152837  00000-0 -70087-1 0  9995,2 53792  53.2166 283.8715 0001863  44.3609 130.7762 15.13012083 10954,6905.156999999997,95.174,528.309,525.736,0.0
53792.0,STARLINK-4739,PAYLOAD,2022-11-20 22:00:00,15.12194169,0.0001828,53.2175,282.3662,46.3247,144.9214,-0.071258,-0.01146019,0.0,0 STARLINK-4739,1 53792U 22111V   22324.91667824 -.01146019  00000-0 -71258-1 0  9997,2 53792  53.2175 282.3662 0001828  46.3247 144.9214 15.12194169  1303,6907.647,95.226,530.775,528.249,0.0
53792.0,STARLINK-4739,PAYLOAD,2022-11-21 14:00:01,15.10594179,0.0001882,53.2164,279.3615,44.3501,176.1639,-0.077254,-0.01184785,0.0,0 STARLINK-4739,1 53792U 22111V   22325.58334491 -.01184785  00000-0 -77254-1 0  9996,2 53792  53.2164 279.3615 0001882  44.3501 176.1639 15.10594179  1307,6912.524,95.327,535.69,533.0880000000002,0.0
53792.0,STARLINK-4739,PAYLOAD,2022-11-21 22:00:00,15.09680162,0.0002012,53.2162,277.8614,48.3888,185.3104,-0.058094,-0.0087837,0.0,0 STARLINK-4739,1 53792U 22111V   22325.91667824 -.00878370  00000-0 -58094-1 0  9992,2 53792  53.2162 277.8614 0002012  48.3888 185.3104 15.09680162  1300,6915.314,95.384,538.57,535.7869999999998,0.0
53792.0,STARLINK-4739,PAYLOAD,2022-11-22 08:00:01,15.08919496,0.0002298,53.2138,275.9895,49.1321,289.6769,-0.005101,-0.00080741,0.0,0 STARLINK-4739,1 53792U 22111V   22326.33334491 -.00080741  00000-0 -51010-2 0  9999,2 53792  53.2138 275.9895 0002298  49.1321 289.6769 15.08919496 11221,6917.637,95.433,541.092,537.913,0.0
53792.0,STARLINK-4739,PAYLOAD,2022-11-22 14:00:01,15.088760999999998,0.0002128,53.2134,274.8632,51.272,206.3589,-0.0005142,-8.471e-05,0.0,0 STARLINK-4739,1 53792U 22111V   22326.58335648 -.00008471  00000-0 -51420-3 0  9997,2 53792  53.2134 274.8632 0002128  51.2720 206.3589 15.08876100  1301,6917.77,95.435,541.107,538.163,0.0
53792.0,STARLINK-4739,PAYLOAD,2022-11-22 22:00:00,15.08898095,0.0002039,53.2142,273.3664,53.8757,215.3144,-0.0044436,-0.00070431,0.0,0 STARLINK-4739,1 53792U 22111V   22326.91667824 -.00070431  00000-0 -44436-2 0  9991,2 53792  53.2142 273.3664 0002039  53.8757 215.3144 15.08898095 11303,6917.703,95.434,540.9780000000002,538.1569999999998,0.0
53792.0,STARLINK-4739,PAYLOAD,2022-11-23 14:00:01,15.08802071,0.0001893,53.2145,270.3736,45.6757,246.7233,-0.00046909,-7.738e-05,0.0,0 STARLINK-4739,1 53792U 22111V   22327.58334491 -.00007738  00000-0 -46909-3 0  9994,2 53792  53.2145 270.3736 0001893  45.6757 246.7233 15.08802071  1304,6917.996,95.44,541.1709999999998,538.552,0.0
53792.0,STARLINK-4739,PAYLOAD,2022-11-23 22:00:00,15.08816871,0.0001882,53.2147,268.8771,49.4668,254.4727,-0.0001196,-2.19e-05,0.0,0 STARLINK-4739,1 53792U 22111V   22327.91667824 -.00002190  00000-0 -11960-3 0  9996,2 53792  53.2147 268.8771 0001882  49.4668 254.4727 15.08816871  1305,6917.951,95.439,541.118,538.514,0.0
53792.0,STARLINK-4739,PAYLOAD,2022-11-24 00:00:00,15.08824652,0.0001943,53.2147,268.5036,47.5816,349.2473,-0.00134,-0.00021542,0.0,0 STARLINK-4739,1 53792U 22111V   22328.00001157 -.00021542  00000-0 -13400-2 0  9990,2 53792  53.2147 268.5036 0001943  47.5816 349.2473 15.08824652 11474,6917.927,95.439,541.136,538.448,0.0
53792.0,STARLINK-4739,PAYLOAD,2022-11-24 14:00:01,15.08823672,0.0001921,53.2147,265.8845,47.9995,279.0759,0.00022017,3.216e-05,0.0,0 STARLINK-4739,1 53792U 22111V   22328.58334491  .00003216  00000-0  22017-3 0  9994,2 53792  53.2147 265.8845 0001921  47.9995 279.0759 15.08823672 11568,6917.93,95.439,541.124,538.466,0.0
53792.0,STARLINK-4739,PAYLOAD,2022-11-24 22:00:00,15.08846817,0.0001919,53.2148,264.3883,50.99,287.6561,-0.00048302,-7.969e-05,0.0,0 STARLINK-4739,1 53792U 22111V   22328.91667824 -.00007969  00000-0 -48302-3 0  9996,2 53792  53.2148 264.3883 0001919  50.9900 287.6561 15.08846817  1305,6917.86,95.437,541.052,538.3969999999998,0.0
53792.0,STARLINK-4739,PAYLOAD,2022-11-25 14:00:01,15.08846344,0.0001926,53.2143,261.3954,50.6107,311.2383,0.0010819,0.00016975,0.0,0 STARLINK-4739,1 53792U 22111V   22329.58334491  .00016975  00000-0  10819-2 0  9997,2 53792  53.2143 261.3954 0001926  50.6107 311.2383 15.08846344 11717,6917.861,95.437,541.058,538.394,0.0
53792.0,STARLINK-4739,PAYLOAD,2022-11-25 22:00:00,15.08894153,0.0001909,53.2145,259.8994,51.8886,321.5632,-0.0034797,-0.00055325,0.0,0 STARLINK-4739,1 53792U 22111V   22329.91667824 -.00055325  00000-0 -34797-2 0  9998,2 53792  53.2145 259.8994 0001909  51.8886 321.5632 15.08894153  1309,6917.715,95.434,540.9,538.259,0.0
53792.0,STARLINK-4739,PAYLOAD,2022-11-26 14:00:01,15.08858006,0.0001821,53.2153,256.9062,49.5939,347.1065,-0.00106,-0.00017127,0.0,0 STARLINK-4739,1 53792U 22111V   22330.58334491 -.00017127  00000-0 -10600-2 0  9999,2 53792  53.2153 256.9062 0001821  49.5939 347.1065 15.08858006 11861,6917.825,95.436,540.95,538.431,0.0
53792.0,STARLINK-4739,PAYLOAD,2022-11-26 22:00:00,15.08868947,0.0001807,53.2154,255.4105,49.1135,359.1919,-0.0043641,-0.00069132,0.0,0 STARLINK-4739,1 53792U 22111V   22330.91667824 -.00069132  00000-0 -43641-2 0  9999,2 53792  53.2154 255.4105 0001807  49.1135 359.1919 15.08868947  1306,6917.792,95.436,540.9069999999998,538.4069999999998,0.0
53792.0,STARLINK-4739,PAYLOAD,2022-11-27 14:00:01,15.08799142,0.0001831,53.2147,252.4173,49.7157,21.7733,0.0010243,0.00016033,0.0,0 STARLINK-4739,1 53792U 22111V   22331.58334491  .00016033  00000-0  10243-2 0  9996,2 53792  53.2147 252.4173 0001831  49.7157  21.7733 15.08799142  1303,6918.005,95.44,541.137,538.604,0.0
53792.0,STARLINK-4739,PAYLOAD,2022-11-27 22:00:00,15.0882865,0.0001958,53.2146,250.9216,51.2616,31.7738,-0.0013714,-0.00022041,0.0,0 STARLINK-4739,1 53792U 22111V   22331.91667824 -.00022041  00000-0 -13714-2 0  9996,2 53792  53.2146 250.9216 0001958  51.2616  31.7738 15.08828650  1304,6917.915,95.438,541.135,538.4259999999998,0.0
53792.0,STARLINK-4739,PAYLOAD,2022-11-28 00:00:00,15.08822332,0.0002014,53.2145,250.548,49.5529,126.378,-0.00093134,-0.00015073,0.0,0 STARLINK-4739,1 53792U 22111V   22332.00001157 -.00015073  00000-0 -93134-3 0  9990,2 53792  53.2145 250.5480 0002014  49.5529 126.3780 15.08822332 12074,6917.934,95.439,541.193,538.406,0.0
53792.0,STARLINK-4739,PAYLOAD,2022-11-28 16:00:00,15.08819944,0.0001959,53.2141,247.5537,52.5269,146.5674,0.0032902,0.00052437,0.0,0 STARLINK-4739,1 53792U 22111V   22332.66667824  .00052437  00000-0  32902-2 0  9999,2 53792  53.2141 247.5537 0001959  52.5269 146.5674 15.08819944 12173,6917.941999999999,95.439,541.1619999999998,538.451,0.0
53792.0,STARLINK-4739,PAYLOAD,2022-11-28 22:00:01,15.0886089,0.0002079,53.2143,246.4323,52.0433,65.7978,-0.0013105,-0.00021097,0.0,0 STARLINK-4739,1 53792U 22111V   22332.91668981 -.00021097  00000-0 -13105-2 0  9996,2 53792  53.2143 246.4323 0002079  52.0433  65.7978 15.08860890  1306,6917.816999999999,95.436,541.12,538.243,0.0
53792.0,STARLINK-4739,PAYLOAD,2022-11-29 06:00:00,15.08851977,0.0002162,53.2142,244.9369,46.4725,82.9198,0.00017837,2.553e-05,0.0,0 STARLINK-4739,1 53792U 22111V   22333.25001157  .00002553  00000-0  17837-3 0  9991,2 53792  53.2142 244.9369 0002162  46.4725  82.9198 15.08851977 12260,6917.844,95.437,541.2040000000002,538.2130000000002,0.0
53792.0,STARLINK-4739,PAYLOAD,2022-11-29 14:00:01,15.08832469,0.0001933,53.2144,243.4385,49.2241,91.8502,4.5741e-06,-2.15e-06,0.0,0 STARLINK-4739,1 53792U 22111V   22333.58335648 -.00000215  00000-0  45741-5 0  9993,2 53792  53.2144 243.4385 0001933  49.2241  91.8502 15.08832469  1309,6917.903,95.438,541.106,538.431,0.0
53792.0,STARLINK-4739,PAYLOAD,2022-11-29 22:00:00,15.08838449,0.0002019,53.2146,241.9429,48.8107,103.7862,-0.0011023,-0.00017788,0.0,0 STARLINK-4739,1 53792U 22111V   22333.91667824 -.00017788  00000-0 -11023-2 0  9991,2 53792  53.2146 241.9429 0002019  48.8107 103.7862 15.08838449 12369,6917.885,95.438,541.1469999999998,538.3530000000002,0.0
53792.0,STARLINK-4739,PAYLOAD,2022-11-30 14:00:01,15.08830485,0.0001946,53.2151,238.9496,50.0961,125.7468,0.0019578,0.00031,0.0,0 STARLINK-4739,1 53792U 22111V   22334.58335648  .00031000  00000-0  19578-2 0  9995,2 53792  53.2151 238.9496 0001946  50.0961 125.7468 15.08830485 12465,6917.909000000002,95.438,541.121,538.428,0.0
